{"type": "FeatureCollection", "features": [ {"type": "Feature", "properties": {"norad_id": 58662, "name": "TIANMU-1 21", "group": "weather", "lat": 26.144765743594398, "lon": 109.17163224156663, "alt_km": 473.99359695930525, "timestamp": "2025-12-25T09:48:51.931304+00:00", "meta": {"OBJECT_NAME": "TIANMU-1 21", "OBJECT_ID": "2023-208C", "EPOCH": "2025-12-24T22:43:29.917920", "MEAN_MOTION": 15.31807241, "ECCENTRICITY": 0.00064557, "INCLINATION": 97.4377, "RA_OF_ASC_NODE": 112.3845, "ARG_OF_PERICENTER": 209.9011, "MEAN_ANOMALY": 150.1862, "EPHEMERIS_TYPE": 0, "CLASSIFICATION_TYPE": "U", "NORAD_CAT_ID": 58662, "ELEMENT_SET_NO": 999, "REV_AT_EPOCH": 11086, "BSTAR": 0.00039278063, "MEAN_MOTION_DOT": 0.00011997, "MEAN_MOTION_DDOT": 0}, "tle": {"line1": "1 58662U 23208C   25358.94687405  .00011997  00000+0  39278-3 0  9996", "line2": "2 58662  97.4377 112.3845 0006455 209.9011 150.1862 15.31807241110863"}}, "geometry": {"type": "Point", "coordinates": [109.17163224156663, 26.144765743594398]}}, {"type": "Feature", "properties": {"norad_id": 58663, "name": "TIANMU-1 22", "group": "weather", "lat": 51.600164003435474, "lon": -60.0363428999414, "alt_km": 477.79415273054747, "timestamp": "2025-12-25T09:48:51.931314+00:00", "meta": {"OBJECT_NAME": "TIANMU-1 22", "OBJECT_ID": "2023-208D", "EPOCH": "2025-12-24T22:15:13.974048", "MEAN_MOTION": 15.27806011, "ECCENTRICITY": 0.00029654, "INCLINATION": 97.4383, "RA_OF_ASC_NODE": 109.9952, "ARG_OF_PERICENTER": 224.5049, "MEAN_ANOMALY": 135.5953, "EPHEMERIS_TYPE": 0, "CLASSIFICATION_TYPE": "U", "NORAD_CAT_ID": 58663, "ELEMENT_SET_NO": 999, "REV_AT_EPOCH": 11069, "BSTAR": 0.00036021373, "MEAN_MOTION_DOT": 9.711e-05, "MEAN_MOTION_DDOT": 0}, "tle": {"line1": "1 58663U 23208D   25358.92724507  .00009711  00000+0  36021-3 0  9994", "line2": "2 58663  97.4383 109.9952 0002965 224.5049 135.5953 15.27806011110696"}}, "geometry": {"type": "Point", "coordinates": [-60.0363428999414, 51.600164003435474]}}, {"type": "Feature", "properties": {"norad_id": 58700, "name": "TIANMU-1 15", "group": "weather", "lat": 67.94048480984392, "lon": 19.704400419551806, "alt_km": 487.9196045012159, "timestamp": "2025-12-25T09:48:51.931324+00:00", "meta": {"OBJECT_NAME": "TIANMU-1 15", "OBJECT_ID": "2024-004A", "EPOCH": "2025-12-24T23:52:42.244032", "MEAN_MOTION": 15.24566409, "ECCENTRICITY": 0.00060732, "INCLINATION": 97.4629, "RA_OF_ASC_NODE": 180.4185, "ARG_OF_PERICENTER": 238.0134, "MEAN_ANOMALY": 122.0514, "EPHEMERIS_TYPE": 0, "CLASSIFICATION_TYPE": "U", "NORAD_CAT_ID": 58700, "ELEMENT_SET_NO": 999, "REV_AT_EPOCH": 10921, "BSTAR": 0.00032073919, "MEAN_MOTION_DOT": 7.834e-05, "MEAN_MOTION_DDOT": 0}, "tle": {"line1": "1 58700U 24004A   25358.99493338  .00007834  00000+0  32074-3 0  9991", "line2": "2 58700  97.4629 180.4185 0006073 238.0134 122.0514 15.24566409109213"}}, "geometry": {"type": "Point", "coordinates": [19.704400419551806, 67.94048480984392]}}, {"type": "Feature", "properties": {"norad_id": 58701, "name": "TIANMU-1 16", "group": "weather", "lat": -13.544206104270021, "lon": -1.5985458571341058, "alt_km": 494.52122016554677, "timestamp": "2025-12-25T09:48:51.931334+00:00", "meta": {"OBJECT_NAME": "TIANMU-1 16", "OBJECT_ID": "2024-004B", "EPOCH": "2025-12-24T23:30:59.784768", "MEAN_MOTION": 15.24593734, "ECCENTRICITY": 0.00044103, "INCLINATION": 97.4569, "RA_OF_ASC_NODE": 179.7825, "ARG_OF_PERICENTER": 240.2372, "MEAN_ANOMALY": 119.8428, "EPHEMERIS_TYPE": 0, "CLASSIFICATION_TYPE": "U", "NORAD_CAT_ID": 58701, "ELEMENT_SET_NO": 999, "REV_AT_EPOCH": 10921, "BSTAR": 0.00031097672, "MEAN_MOTION_DOT": 7.597e-05, "MEAN_MOTION_DDOT": 0}, "tle": {"line1": "1 58701U 24004B   25358.97985862  .00007597  00000+0  31098-3 0  9999", "line2": "2 58701  97.4569 179.7825 0004410 240.2372 119.8428 15.24593734109210"}}, "geometry": {"type": "Point", "coordinates": [-1.5985458571341058, -13.544206104270021]}}, {"type": "Feature", "properties": {"norad_id": 58702, "name": "TIANMU-1 17", "group": "weather", "lat": -77.48833837830428, "lon": -143.18127900699523, "alt_km": 497.34069546019873, "timestamp": "2025-12-25T09:48:51.931344+00:00", "meta": {"OBJECT_NAME": "TIANMU-1 17", "OBJECT_ID": "2024-004C", "EPOCH": "2025-12-24T23:08:18.585600", "MEAN_MOTION": 15.24636998, "ECCENTRICITY": 0.00035701, "INCLINATION": 97.4602, "RA_OF_ASC_NODE": 180.183, "ARG_OF_PERICENTER": 241.1952, "MEAN_ANOMALY": 118.8927, "EPHEMERIS_TYPE": 0, "CLASSIFICATION_TYPE": "U", "NORAD_CAT_ID": 58702, "ELEMENT_SET_NO": 999, "REV_AT_EPOCH": 10920, "BSTAR": 0.00029480276, "MEAN_MOTION_DOT": 7.207e-05, "MEAN_MOTION_DDOT": 0}, "tle": {"line1": "1 58702U 24004C   25358.96410400  .00007207  00000+0  29480-3 0  9990", "line2": "2 58702  97.4602 180.1830 0003570 241.1952 118.8927 15.24636998109203"}}, "geometry": {"type": "Point", "coordinates": [-143.18127900699523, -77.48833837830428]}}, {"type": "Feature", "properties": {"norad_id": 58703, "name": "TIANMU-1 18", "group": "weather", "lat": 10.719595920858726, "lon": 179.4022865124019, "alt_km": 494.9352029190459, "timestamp": "2025-12-25T09:48:51.931354+00:00", "meta": {"OBJECT_NAME": "TIANMU-1 18", "OBJECT_ID": "2024-004D", "EPOCH": "2025-12-24T22:44:27.355776", "MEAN_MOTION": 15.24619305, "ECCENTRICITY": 0.00029638, "INCLINATION": 97.4619, "RA_OF_ASC_NODE": 180.3645, "ARG_OF_PERICENTER": 237.808, "MEAN_ANOMALY": 122.287, "EPHEMERIS_TYPE": 0, "CLASSIFICATION_TYPE": "U", "NORAD_CAT_ID": 58703, "ELEMENT_SET_NO": 999, "REV_AT_EPOCH": 10920, "BSTAR": 0.00028778502, "MEAN_MOTION_DOT": 7.029e-05, "MEAN_MOTION_DDOT": 0}, "tle": {"line1": "1 58703U 24004D   25358.94753884  .00007029  00000+0  28779-3 0  9997", "line2": "2 58703  97.4619 180.3645 0002963 237.8080 122.2870 15.24619305109206"}}, "geometry": {"type": "Point", "coordinates": [179.4022865124019, 10.719595920858726]}}, {"type": "Feature", "properties": {"norad_id": 58990, "name": "INSAT-3DS", "group": "weather", "lat": -0.054740296842142246, "lon": -36.500818380717675, "alt_km": 35782.746327033215, "timestamp": "2025-12-25T09:48:51.931367+00:00", "meta": {"OBJECT_NAME": "INSAT-3DS", "OBJECT_ID": "2024-033A", "EPOCH": "2025-12-24T20:11:11.705280", "MEAN_MOTION": 1.00271357, "ECCENTRICITY": 0.00012445, "INCLINATION": 0.0597, "RA_OF_ASC_NODE": 99.6283, "ARG_OF_PERICENTER": 175.2991, "MEAN_ANOMALY": 203.5912, "EPHEMERIS_TYPE": 0, "CLASSIFICATION_TYPE": "U", "NORAD_CAT_ID": 58990, "ELEMENT_SET_NO": 999, "REV_AT_EPOCH": 4532, "BSTAR": 0, "MEAN_MOTION_DOT": -1.35e-06, "MEAN_MOTION_DDOT": 0}, "tle": {"line1": "1 58990U 24033A   25358.84110770 -.00000135  00000+0  00000+0 0  9992", "line2": "2 58990   0.0597  99.6283 0001244 175.2991 203.5912  1.00271357 45328"}}, "geometry": {"type": "Point", "coordinates": [-36.500818380717675, -0.054740296842142246]}}, {"type": "Feature", "properties": {"norad_id": 59051, "name": "METEOR-M2 4", "group": "weather", "lat": -34.47069657314791, "lon": 130.10134804291727, "alt_km": 824.6530086376315, "timestamp": "2025-12-25T09:48:51.931382+00:00", "meta": {"OBJECT_NAME": "METEOR-M2 4", "OBJECT_ID": "2024-039A", "EPOCH": "2025-12-24T22:40:39.208800", "MEAN_MOTION": 14.22403099, "ECCENTRICITY": 0.00063991, "INCLINATION": 98.6784, "RA_OF_ASC_NODE": 315.6634, "ARG_OF_PERICENTER": 321.8323, "MEAN_ANOMALY": 38.2401, "EPHEMERIS_TYPE": 0, "CLASSIFICATION_TYPE": "U", "NORAD_CAT_ID": 59051, "ELEMENT_SET_NO": 999, "REV_AT_EPOCH": 9449, "BSTAR": 3.7969255e-05, "MEAN_MOTION_DOT": 4.1e-07, "MEAN_MOTION_DDOT": 0}, "tle": {"line1": "1 59051U 24039A   25358.94489825  .00000041  00000+0  37969-4 0  9992", "line2": "2 59051  98.6784 315.6634 0006399 321.8323  38.2401 14.22403099 94499"}}, "geometry": {"type": "Point", "coordinates": [130.10134804291727, -34.47069657314791]}}, {"type": "Feature", "properties": {"norad_id": 60133, "name": "GOES 19", "group": "weather", "lat": -6.925642069118682e-05, "lon": 166.1897002252317, "alt_km": 35790.32278291039, "timestamp": "2025-12-25T09:48:51.931401+00:00", "meta": {"OBJECT_NAME": "GOES 19", "OBJECT_ID": "2024-119A", "EPOCH": "2025-12-24T19:35:26.274912", "MEAN_MOTION": 1.00271194, "ECCENTRICITY": 0.00010545, "INCLINATION": 0.0207, "RA_OF_ASC_NODE": 186.583, "ARG_OF_PERICENTER": 134.5878, "MEAN_ANOMALY": 351.091, "EPHEMERIS_TYPE": 0, "CLASSIFICATION_TYPE": "U", "NORAD_CAT_ID": 60133, "ELEMENT_SET_NO": 999, "REV_AT_EPOCH": 521, "BSTAR": 0, "MEAN_MOTION_DOT": -2.27e-06, "MEAN_MOTION_DDOT": 0}, "tle": {"line1": "1 60133U 24119A   25358.81627633 -.00000227  00000+0  00000+0 0  9999", "line2": "2 60133   0.0207 186.5830 0001054 134.5878 351.0910  1.00271194  5213"}}, "geometry": {"type": "Point", "coordinates": [166.1897002252317, -6.925642069118682e-05]}}, {"type": "Feature", "properties": {"norad_id": 65815, "name": "FENGYUN 3H", "group": "weather", "lat": -19.786644449810886, "lon": -58.13181095476832, "alt_km": 831.1369035784446, "timestamp": "2025-12-25T09:48:51.931414+00:00", "meta": {"OBJECT_NAME": "FENGYUN 3H", "OBJECT_ID": "2025-219A", "EPOCH": "2025-12-25T03:08:37.326048", "MEAN_MOTION": 14.1990789, "ECCENTRICITY": 8.43e-05, "INCLINATION": 98.6601, "RA_OF_ASC_NODE": 298.4532, "ARG_OF_PERICENTER": 108.8582, "MEAN_ANOMALY": 251.2686, "EPHEMERIS_TYPE": 0, "CLASSIFICATION_TYPE": "U", "NORAD_CAT_ID": 65815, "ELEMENT_SET_NO": 999, "REV_AT_EPOCH": 1268, "BSTAR": 6.5638e-05, "MEAN_MOTION_DOT": 9.6e-07, "MEAN_MOTION_DDOT": 0}, "tle": {"line1": "1 65815U 25219A   25359.13098757  .00000096  00000+0  65638-4 0  9994", "line2": "2 65815  98.6601 298.4532 0000843 108.8582 251.2686 14.19907890 12682"}}, "geometry": {"type": "Point", "coordinates": [-58.13181095476832, -19.786644449810886]}}]}